     2.11           N: GPS NAV DATA                         RINEX VERSION / TYPE
teqc  2016Apr1      IGN                 20160613 00:30:45UTCPGM / RUN BY / DATE
    17                                                      LEAP SECONDS
    5.5879D-09  1.4901D-08 -5.9605D-08 -1.1921D-07          ION ALPHA
    8.3968D+04  9.8304D+04 -6.5536D+04 -5.2429D+05          ION BETA
   -3.725290298462D-09-1.509903313490D-14   147456     1901 DELTA-UTC: A0,A1,T,W
                                                            END OF HEADER
20 16  6 12 22  0  0.0 4.180571995676D-04 2.273736754432D-12 0.000000000000D+00
    7.300000000000D+01-2.809375000000D+01 5.259147636037D-09 2.857265103692D+00
   -1.393258571625D-06 4.564144881442D-03 9.024515748024D-06 5.153750694275D+03
    7.920000000000D+04 5.401670932770D-08-1.577597914245D+00-7.450580596924D-09
    9.259250061617D-01 1.856562500000D+02 1.377620411168D+00-8.250700817664D-09
   -1.964367538078D-10 1.000000000000D+00 1.901000000000D+03 0.000000000000D+00
    2.000000000000D+00 0.000000000000D+00-8.381903171539D-09 7.300000000000D+01
    7.360800000000D+04 4.000000000000D+00
 5 16  6 12 22  0  0.0-1.133368350565D-04 2.955857780762D-12 0.000000000000D+00
    2.500000000000D+01-1.978125000000D+01 4.696267046944D-09-1.853871946511D+00
   -9.797513484955D-07 4.639181890525D-03 9.935349225998D-06 5.153812328339D+03
    7.920000000000D+04-3.352761268616D-08-1.504323059905D+00-7.264316082001D-08
    9.459948202528D-01 1.810625000000D+02 4.527153193073D-01-7.991047144903D-09
   -1.303625729816D-10 1.000000000000D+00 1.901000000000D+03 0.000000000000D+00
    2.000000000000D+00 0.000000000000D+00-1.071020960808D-08 2.500000000000D+01
    7.458600000000D+04 4.000000000000D+00
 2 16  6 12 22  0  0.0 5.858358927071D-04-2.614797267597D-12 0.000000000000D+00
    9.100000000000D+01-4.850000000000D+01 5.136642533208D-09 1.928550194257D+00
   -2.875924110413D-06 1.576798269525D-02 5.815178155899D-06 5.153575696945D+03
    7.920000000000D+04-1.881271600723D-07-2.579688189271D+00-3.166496753693D-07
    9.433996430790D-01 2.620937500000D+02-2.109150216538D+00-8.345704774960D-09
   -1.421487782100D-10 1.000000000000D+00 1.901000000000D+03 0.000000000000D+00
    2.000000000000D+00 0.000000000000D+00-2.002343535423D-08 9.100000000000D+01
    7.201800000000D+04 4.000000000000D+00
15 16  6 12 22  0  0.0-3.150128759444D-04-1.591615728103D-12 0.000000000000D+00
    5.700000000000D+01 5.500000000000D+01 5.119141804232D-09 2.866842159803D+00
    2.820044755936D-06 8.157237549312D-03 7.685273885727D-06 5.153607067108D+03
    7.920000000000D+04-4.656612873077D-08-5.057807532842D-01-1.005828380585D-07
    9.308245016739D-01 2.157812500000D+02 4.824663580547D-01-8.261058391955D-09
    1.342913080577D-10 1.000000000000D+00 1.901000000000D+03 0.000000000000D+00
    2.000000000000D+00 0.000000000000D+00-1.071020960808D-08 5.700000000000D+01
    7.201800000000D+04 4.000000000000D+00
12 16  6 12 22  0  0.0 3.825607709587D-04 1.136868377216D-12 0.000000000000D+00
    3.900000000000D+01-1.284375000000D+01 3.907305612105D-09 2.697105698421D-01
   -7.580965757370D-07 6.140453857370D-03 8.596107363701D-06 5.153716045380D+03
    7.920000000000D+04-3.725290298462D-09 1.701745645314D+00 1.080334186554D-07
    9.901161252366D-01 2.357812500000D+02 7.628545680005D-01-7.797110495235D-09
    4.107313943255D-11 1.000000000000D+00 1.901000000000D+03 0.000000000000D+00
    2.000000000000D+00 0.000000000000D+00-1.257285475731D-08 3.900000000000D+01
    7.201800000000D+04 4.000000000000D+00
13 16  6 12 22  0  0.0-2.430379390717D-05-2.501110429876D-12 0.000000000000D+00
    2.300000000000D+01 5.390625000000D+01 4.221961575932D-09 1.769337171172D+00
    2.834945917130D-06 4.283021087758D-03 7.128342986107D-06 5.153679075241D+03
    7.920000000000D+04 1.247972249985D-07-3.319272234955D-01 2.793967723846D-08
    9.715885749754D-01 2.468437500000D+02 2.002261892028D+00-7.899971922683D-09
    1.603638226540D-10 1.000000000000D+00 1.901000000000D+03 0.000000000000D+00
    2.000000000000D+00 0.000000000000D+00-1.117587089539D-08 2.300000000000D+01
    7.201800000000D+04 4.000000000000D+00
 4 16  6 12 22  0  0.0-2.576857805252D-04-5.684341886081D-13 0.000000000000D+00
    3.900000000000D+01-1.437500000000D+00 5.218074496605D-09-1.533250462608D+00
   -5.587935447693D-08 8.509640465491D-03 7.938593626022D-06 5.153652015686D+03
    7.920000000000D+04 1.750886440277D-07 1.672328475194D+00-1.862645149231D-09
    9.831020694158D-01 2.336875000000D+02 8.953950951997D-01-7.754965882600D-09
    9.500395729616D-11 1.000000000000D+00 1.901000000000D+03 0.000000000000D+00
    2.000000000000D+00 6.300000000000D+01-1.955777406693D-08 3.900000000000D+01
    7.201800000000D+04 4.000000000000D+00
 6 16  6 12 23 59 28.0 2.039256505668D-04 5.343281372916D-12 0.000000000000D+00
    1.300000000000D+01-4.387500000000D+01 4.818772048054D-09 2.844987726095D+00
   -2.032145857811D-06 4.080283688381D-04 6.264075636864D-06 5.153705734253D+03
    8.636800000000D+04 1.043081283569D-07-2.542298415516D+00 7.450580596924D-09
    9.644290436551D-01 2.589375000000D+02-1.331562051967D+00-8.242843740902D-09
   -1.246480557660D-10 1.000000000000D+00 1.901000000000D+03 0.000000000000D+00
    2.000000000000D+00 0.000000000000D+00 4.190951585770D-09 1.300000000000D+01
    7.923000000000D+04
 7 16  6 12 23 59 44.0 4.488267004490D-04-2.387423592154D-12 0.000000000000D+00
    7.000000000000D+00 5.156250000000D+00 4.440899203928D-09 1.892136435557D+00
    2.849847078323D-07 9.572762879543D-03 5.902722477913D-06 5.153644821167D+03
    8.638400000000D+04-2.030283212662D-07 6.249131666903D-01 8.940696716309D-08
    9.663769088372D-01 2.695312500000D+02-2.673094724508D+00-8.160697007042D-09
   -2.203663224121D-10 1.000000000000D+00 1.901000000000D+03 0.000000000000D+00
    2.000000000000D+00 0.000000000000D+00-1.117587089539D-08 7.000000000000D+00
    7.923000000000D+04
30 16  6 12 23 59 44.0 1.326133497059D-04 2.728484105319D-12 0.000000000000D+00
    1.200000000000D+01 2.125000000000D+00 4.728053948355D-09 2.014835011680D+00
    1.452863216400D-07 2.181724063121D-03 5.645677447319D-06 5.153595325470D+03
    8.638400000000D+04-2.421438694000D-08 6.688179144479D-01 2.607703208923D-08
    9.521413100617D-01 2.661875000000D+02 3.032556638065D+00-8.271415552485D-09
   -2.125088577332D-10 1.000000000000D+00 1.901000000000D+03 0.000000000000D+00
    2.000000000000D+00 0.000000000000D+00 3.259629011154D-09 1.200000000000D+01
    7.923000000000D+04
20 16  6 12 23 59 44.0 4.180744290352D-04 2.273736754432D-12 0.000000000000D+00
    3.000000000000D+00-3.050000000000D+01 5.224503335820D-09-2.378009646013D+00
   -1.501291990280D-06 4.562509479001D-03 9.702518582344D-06 5.153753879547D+03
    8.638400000000D+04 5.774199962616D-08-1.577657203389D+00 0.000000000000D+00
    9.259236105378D-01 1.735312500000D+02 1.377514495899D+00-8.252129448601D-09
   -1.935794919343D-10 1.000000000000D+00 1.901000000000D+03 0.000000000000D+00
    2.000000000000D+00 0.000000000000D+00-8.381903171539D-09 3.000000000000D+00
    7.921800000000D+04 4.000000000000D+00
10 16  6 12 23 59 44.0-4.411721602082D-05-8.299139153678D-12 0.000000000000D+00
    6.000000000000D+00-1.803125000000D+01 4.564475843026D-09 2.632920036031D-01
   -9.946525096893D-07 1.549286884256D-03 9.272247552872D-06 5.153683994293D+03
    8.638400000000D+04-7.450580596924D-09-1.496253476506D+00-1.303851604462D-08
    9.591633358601D-01 1.962187500000D+02-2.710278291181D+00-8.012476608955D-09
   -2.342954736326D-10 1.000000000000D+00 1.901000000000D+03 0.000000000000D+00
    2.000000000000D+00 0.000000000000D+00 2.328306436539D-09 6.000000000000D+00
    7.936800000000D+04 4.000000000000D+00
31 16  6 13  0  0  0.0 2.642087638378D-04-1.932676241267D-12 0.000000000000D+00
    3.500000000000D+01 2.500000000000D+00 4.216247052185D-09 1.759802111050D+00
    2.514570951462D-07 8.150448207743D-03 5.554407835007D-06 5.153761995316D+03
    8.640000000000D+04-7.450580596924D-09 6.343351198382D-01 9.126961231232D-08
    9.711892890407D-01 2.770000000000D+02-3.957520088654D-01-7.964974630307D-09
   -2.017941198208D-10 1.000000000000D+00 1.901000000000D+03 0.000000000000D+00
    2.000000000000D+00 0.000000000000D+00-1.350417733192D-08 3.500000000000D+01
    7.920000000000D+04 4.000000000000D+00
 1 16  6 13  0  0  0.0 2.344697713852D-05 1.250555214938D-12 0.000000000000D+00
    6.100000000000D+01-4.412500000000D+01 4.700910097489D-09 2.618074157572D+00
   -2.333894371986D-06 5.566989770159D-03 6.606802344322D-06 5.153642795563D+03
    8.640000000000D+04-1.285225152969D-07-2.533872459422D+00-6.891787052155D-08
    9.645975879099D-01 2.542812500000D+02 4.699757235753D-01-8.028191549260D-09
   -5.285934466102D-11 1.000000000000D+00 1.901000000000D+03 0.000000000000D+00
    2.000000000000D+00 0.000000000000D+00 5.122274160385D-09 6.100000000000D+01
    7.920000000000D+04 4.000000000000D+00
 8 16  6 13  0  0  0.0-3.879284486175D-05-1.477928890381D-12 0.000000000000D+00
    9.400000000000D+01 6.968750000000D+00 4.659479800322D-09-6.979102699412D-01
    1.378357410431D-07 1.726388582028D-03 6.474554538727D-06 5.153702983856D+03
    8.640000000000D+04-1.117587089539D-08 2.689119191214D+00-3.911554813385D-08
    9.636567223877D-01 2.585312500000D+02-1.076745575438D+00-8.184983794572D-09
    2.953694461802D-10 1.000000000000D+00 1.901000000000D+03 0.000000000000D+00
    2.000000000000D+00 0.000000000000D+00 4.656612873077D-09 9.400000000000D+01
    7.920000000000D+04 4.000000000000D+00
